OBJECT_NAME,OBJECT_ID,EPOCH,MEAN_MOTION,ECCENTRICITY,INCLINATION,RA_OF_ASC_NODE,ARG_OF_PERICENTER,MEAN_ANOMALY,EPHEMERIS_TYPE,CLASSIFICATION_TYPE,NORAD_CAT_ID,ELEMENT_SET_NO,REV_AT_EPOCH,BSTAR,MEAN_MOTION_DOT,MEAN_MOTION_DDOT
ANGOSAT 2,2022-131A,2026-07-12T11:54:24.202080,1.00270753,.00002013,0.0192,113.9074,135.3318,242.7454,0,U,54033,999,1373,0,.136E-5,0
EUTELSAT HOTBIRD 13F,2022-134A,2026-07-13T03:15:40.656672,1.00272365,.00018215,0.0558,285.3238,69.6444,357.9840,0,U,54048,999,1363,0,.85E-6,0
LDPE-2,2022-144A,2026-07-13T05:47:38.686272,1.00543103,.00023777,5.6736,63.4326,110.6563,71.4776,0,U,54219,999,1210,0,.32E-6,0
EUTELSAT HOTBIRD 13G,2022-146A,2026-07-13T04:07:38.735904,1.00271585,.00022317,0.0125,236.5191,308.2946,181.1666,0,U,54225,999,772,0,0,0
ZHONGXING-19,2022-148A,2026-07-13T08:05:48.439680,1.00270517,.00029367,0.0142,340.7979,158.5961,76.4551,0,U,54230,999,1364,0,-.85E-6,0
GALAXY 31 (G-31),2022-153A,2026-07-13T06:02:45.468096,1.00270644,.00009507,0.0182,65.6448,53.7149,141.4445,0,U,54243,999,739,0,.11E-6,0
GALAXY 32 (G-32),2022-153B,2026-07-13T02:45:56.155392,1.00270119,.00014548,0.0124,24.1776,22.4936,194.8053,0,U,54244,999,1340,0,-.176E-5,0
EUTELSAT 10B,2022-157A,2026-07-13T06:40:03.793152,1.00267622,.00016078,0.0607,95.3404,16.8996,288.9209,0,U,54259,999,1328,0,.65E-6,0
GALAXY 35 (G-35),2022-170A,2026-07-13T08:02:51.090720,1.00268735,.00019042,0.0244,63.0238,53.9930,201.8076,0,U,54741,999,1315,0,0,0
GALAXY 36 (G-36),2022-170B,2026-07-12T19:55:46.066656,1.00270917,.00023414,0.0298,108.9509,351.1655,40.5435,0,U,54742,999,1303,0,-.186E-5,0
METEOSAT-12 (MTG-I1),2022-170C,2026-07-13T06:37:11.567712,1.00267241,.00037645,0.7231,19.3648,82.4320,288.3622,0,U,54743,999,1324,0,-.11E-6,0
SHIJIAN-23 (SJ-23),2023-002A,2026-07-12T16:47:49.008192,1.00077905,.0003423,3.7803,77.9909,270.0048,325.4010,0,U,55131,999,1276,0,-.35E-5,0
APSTAR-6E,2023-005A,2026-07-12T15:51:36.607968,1.00269401,.00019026,0.0619,237.7443,332.5772,92.1502,0,U,55239,999,1894,0,-.318E-5,0
USA 342,2023-008A,2026-07-09T06:55:38.597952,1.00269378,.0000262,0.0052,352.2306,7.3445,55.4773,0,U,55263,999,1273,0,0,0
LDPE-3A,2023-008B,2026-07-13T05:36:05.148288,0.99150677,.00015025,2.4133,81.3415,79.8138,359.6847,0,U,55264,999,1207,0,-.299E-5,0
ELEKTRO-L 4,2023-016A,2026-07-12T17:34:18.340608,1.00272446,.00012616,0.1095,127.7772,49.1881,183.0251,0,U,55506,999,1259,0,-.58E-6,0
AMAZONAS NEXUS,2023-017A,2026-07-13T07:35:38.606784,1.00269197,.00043647,0.0348,41.2428,43.9653,258.8950,0,U,55508,999,730,0,-.285E-5,0
ZHONGXING-26,2023-023A,2026-07-12T12:23:44.685888,1.00290824,.00031696,0.0650,71.3409,16.2999,153.8117,0,U,55686,999,1248,0,-.352E-5,0
LUCH-5X (OLYMP-K 2),2023-031A,2026-07-12T18:11:38.812704,1.00267834,.0000862,0.0304,94.0667,154.5307,16.9318,0,U,55841,999,1219,0,.34E-6,0
GAOFEN-13 02,2023-036A,2026-07-13T04:51:38.592864,1.00274628,.00037158,1.0270,4.3077,335.9638,171.9324,0,U,55912,999,1235,0,-.221E-5,0
SES-18,2023-038A,2026-07-13T08:08:50.823168,1.00271848,.00008127,0.0576,259.4918,310.2700,100.5773,0,U,55970,999,1236,0,-.104E-5,0
SES-19,2023-038B,2026-07-12T23:08:12.649920,1.00273078,.00015959,0.0165,326.4823,156.8223,19.7105,0,U,55971,999,1235,0,.86E-6,0
INTELSAT 40E (IS-40E),2023-052A,2026-07-13T02:45:56.155392,1.00269641,.00022197,0.0231,63.3228,82.0576,96.1141,0,U,56174,999,1208,0,0,0
VIASAT-3 F1,2023-060A,2026-07-12T14:47:59.500896,1.00270234,.00010194,0.0161,22.0903,87.2892,314.1503,0,U,56370,999,1168,0,0,0
ARCTURUS,2023-060B,2026-07-13T02:52:21.571968,1.00595546,.00008785,2.8392,79.6196,132.4593,218.6143,0,U,56371,999,1171,0,-.33E-5,0
GS-1,2023-060C,2026-07-12T22:29:23.870976,1.00267394,.00034253,2.7898,79.5285,281.3475,356.6332,0,U,56372,999,779,0,-.226E-5,0
BEIDOU-3 G4,2023-066A,2026-07-13T07:17:07.738656,1.00273065,.00048706,0.4622,338.3610,187.9729,14.1847,0,U,56564,999,1165,0,-.283E-5,0
ARABSAT-7B (BADR-8),2023-075A,2026-07-13T01:36:42.399360,1.00271123,.0003307,0.0751,31.4954,358.8618,310.7639,0,U,56757,999,1137,0,.143E-5,0
NVS-01 (IRNSS-1J),2023-076A,2026-07-13T07:14:08.026656,1.00265489,.0003562,2.1065,243.1740,7.3847,278.6183,0,U,56759,999,1137,0,-.338E-5,0
NUSANTARA TIGA (SATRIA),2023-086A,2026-07-13T04:54:38.679840,1.00267782,.00022232,0.0349,11.4604,328.9769,170.3028,0,U,57045,999,1002,0,-.238E-5,0
H2SAT (HEINRICH HERTZ),2023-093A,2026-07-13T06:37:26.544288,1.00269791,.00003545,0.0190,97.6931,49.6189,243.8967,0,U,57213,999,1117,0,-.1E-7,0
